[Satellite]
VERSION=1.1
NAME=GLOBALSTAR M027
NICKNAME=GLOBALSTAR M027
TLE1=1 25884U 99043B   17186.23815656 -.00000088  00000-0 -91674-3 0  9999
TLE2=2 25884  52.0226  88.5537 0021925 341.9552 189.3620 11.04352366820448
